NORAD_CAT_ID,OBJECT_NAME,OBJECT_TYPE,EPOCH,MEAN_MOTION,ECCENTRICITY,INCLINATION,RA_OF_ASC_NODE,ARG_OF_PERICENTER,MEAN_ANOMALY,BSTAR,MEAN_MOTION_DOT,MEAN_MOTION_DDOT,TLE_LINE0,TLE_LINE1,TLE_LINE2,SEMIMAJOR_AXIS,PERIOD,APOGEE,PERIGEE,DECAYED
53546.0,STARLINK-4477,PAYLOAD,2023-06-24 06:37:34,15.08838547,9.95e-05,53.2148,175.3022,84.2551,275.8554,3.8161e-05,3.2e-06,0.0,0 STARLINK-4477,1 53546U 22101V   23175.27609856  .00000320  00000-0  38161-4 0  9998,2 53546  53.2148 175.3022 0000995  84.2551 275.8554 15.08838547 47080,6917.885,95.438,540.438,539.062,0.0
53546.0,STARLINK-4477,PAYLOAD,2023-06-26 03:08:22,15.08835923,0.0001092,53.2148,166.9758,83.6237,276.488,5.0844e-05,5.21e-06,0.0,0 STARLINK-4477,1 53546U 22101V   23177.13081997  .00000521  00000-0  50844-4 0  9990,2 53546  53.2148 166.9758 0001092  83.6237 276.4880 15.08835923 47360,6917.893,95.438,540.513,539.002,0.0
53546.0,STARLINK-4477,PAYLOAD,2023-06-27 09:20:42,15.08836683,0.0001247,53.2148,161.3261,89.0181,271.0954,2.5704e-06,-2.47e-06,0.0,0 STARLINK-4477,1 53546U 22101V   23178.38938427 -.00000247  00000-0  25704-5 0  9991,2 53546  53.2148 161.3261 0001247  89.0181 271.0954 15.08836683 47556,6917.891,95.438,540.618,538.893,0.0
53546.0,STARLINK-4477,PAYLOAD,2023-06-28 15:33:02,15.08839159,0.0001078,53.2152,155.6761,90.8382,269.2734,4.439e-05,4.19e-06,0.0,0 STARLINK-4477,1 53546U 22101V   23179.64794324  .00000419  00000-0  44390-4 0  9998,2 53546  53.2152 155.6761 0001078  90.8382 269.2734 15.08839159 47744,6917.883,95.438,540.494,539.002,0.0
53546.0,STARLINK-4477,PAYLOAD,2023-06-30 15:14:36,15.088401,0.0001103,53.2153,146.7546,95.3565,264.7553,-1.2118e-05,-4.81e-06,0.0,0 STARLINK-4477,1 53546U 22101V   23181.63514569 -.00000481  00000-0 -12118-4 0  9995,2 53546  53.2153 146.7546 0001103  95.3565 264.7553 15.08840100 48040,6917.88,95.438,540.508,538.982,0.0
53546.0,STARLINK-4477,PAYLOAD,2023-07-02 02:13:05,15.08838583,0.0001204,53.2159,140.2127,91.9077,268.2053,3.4526e-05,2.62e-06,0.0,0 STARLINK-4477,1 53546U 22101V   23183.09242775  .00000262  00000-0  34526-4 0  9996,2 53546  53.2159 140.2127 0001204  91.9077 268.2053 15.08838583 48262,6917.885,95.438,540.583,538.917,0.0
53546.0,STARLINK-4477,PAYLOAD,2023-07-03 06:50:01,15.08847395,0.0001351,53.2163,134.8599,95.8516,264.263,3.3349e-05,2.43e-06,0.0,0 STARLINK-4477,1 53546U 22101V   23184.28474275  .00000243  00000-0  33349-4 0  9991,2 53546  53.2163 134.8599 0001351  95.8516 264.2630 15.08847395 48441,6917.858,95.437,540.657,538.788,0.0
53546.0,STARLINK-4477,PAYLOAD,2023-07-03 13:11:35,15.088256,0.0001166,53.2168,133.67,90.0413,270.0712,0.00018035,2.582e-05,0.0,0 STARLINK-4477,1 53546U 22101V   23184.54971340  .00002582  00000-0  18035-3 0  9997,2 53546  53.2168 133.6700 0001166  90.0413 270.0712 15.08825600 48489,6917.924,95.438,540.596,538.983,0.0
53546.0,STARLINK-4477,PAYLOAD,2023-07-04 01:54:40,15.08838589,0.0001247,53.2156,131.2919,94.4376,265.6759,2.7322e-06,-2.44e-06,0.0,0 STARLINK-4477,1 53546U 22101V   23185.07963075 -.00000244  00000-0  27322-5 0  9997,2 53546  53.2156 131.2919 0001247  94.4376 265.6759 15.08838589 48568,6917.885,95.438,540.612,538.887,0.0
53546.0,STARLINK-4477,PAYLOAD,2023-07-05 04:56:13,15.08840485,0.0001202,53.2158,126.2371,91.23,268.8829,-1.7192e-05,-5.61e-06,0.0,0 STARLINK-4477,1 53546U 22101V   23186.20571239 -.00000561  00000-0 -17192-4 0  9996,2 53546  53.2158 126.2371 0001202  91.2300 268.8829 15.08840485 48739,6917.879,95.438,540.575,538.912,0.0
53546.0,STARLINK-4477,PAYLOAD,2023-07-06 19:05:28,15.08838897,0.0001174,53.2161,119.1,89.0645,271.0482,8.9717e-05,1.14e-05,0.0,0 STARLINK-4477,1 53546U 22101V   23187.79547323  .00001140  00000-0  89717-4 0  9992,2 53546  53.2161 119.1000 0001174  89.0645 271.0482 15.08838897 48979,6917.884,95.438,540.561,538.937,0.0
53546.0,STARLINK-4477,PAYLOAD,2023-07-08 01:17:49,15.08834362,0.0001043,53.2163,113.4496,84.3204,275.7907,1.7175e-05,-1.4e-07,0.0,0 STARLINK-4477,1 53546U 22101V   23189.05403951 -.00000014  00000-0  17175-4 0  9990,2 53546  53.2163 113.4496 0001043  84.3204 275.7907 15.08834362 49169,6917.898,95.438,540.484,539.041,0.0
53546.0,STARLINK-4477,PAYLOAD,2023-07-09 04:19:21,15.08846962,0.0001758,53.217,108.3922,110.5458,249.5723,-6.4877e-05,-1.321e-05,0.0,0 STARLINK-4477,1 53546U 22101V   23190.18011385 -.00001321  00000-0 -64877-4 0  9996,2 53546  53.2170 108.3922 0001758 110.5458 249.5723 15.08846962 49333,6917.859,95.437,540.94,538.508,0.0
53546.0,STARLINK-4477,PAYLOAD,2023-07-10 04:10:09,15.08839661,0.0001271,53.2173,103.9312,99.2118,260.9017,5.0737e-05,5.2e-06,0.0,0 STARLINK-4477,1 53546U 22101V   23191.17371594  .00000520  00000-0  50737-4 0  9995,2 53546  53.2173 103.9312 0001271  99.2118 260.9017 15.08839661 49483,6917.881,95.438,540.626,538.867,0.0
53546.0,STARLINK-4477,PAYLOAD,2023-07-11 00:50:10,15.08829243,0.0001101,53.216,100.0689,89.4515,270.6603,0.00018729,2.693e-05,0.0,0 STARLINK-4477,1 53546U 22101V   23192.03484095  .00002693  00000-0  18729-3 0  9999,2 53546  53.2160 100.0689 0001101  89.4515 270.6603 15.08829243 49617,6917.913,95.438,540.54,539.017,0.0
53546.0,STARLINK-4477,PAYLOAD,2023-07-12 00:40:56,15.08844418,0.0001047,53.2161,95.6098,84.2994,275.8118,3.056e-05,1.99e-06,0.0,0 STARLINK-4477,1 53546U 22101V   23193.02843683  .00000199  00000-0  30560-4 0  9998,2 53546  53.2161  95.6098 0001047  84.2994 275.8118 15.08844418 49769,6917.867,95.437,540.456,539.008,0.0
53546.0,STARLINK-4477,PAYLOAD,2023-07-13 00:31:44,15.08838331,0.0001152,53.2165,91.1488,95.5987,264.5137,-2.4322e-06,-3.27e-06,0.0,0 STARLINK-4477,1 53546U 22101V   23194.02204209 -.00000327  00000-0 -24322-5 0  9999,2 53546  53.2165  91.1488 0001152  95.5987 264.5137 15.08838331 49911,6917.885,95.438,540.547,538.954,0.0
53546.0,STARLINK-4477,PAYLOAD,2023-07-14 11:30:13,15.08839232,0.0001184,53.2164,84.6069,86.6342,273.4785,5.8992e-05,6.51e-06,0.0,0 STARLINK-4477,1 53546U 22101V   23195.47932353  .00000651  00000-0  58992-4 0  9994,2 53546  53.2164  84.6069 0001184  86.6342 273.4785 15.08839232 50138,6917.883,95.438,540.567,538.929,0.0
53546.0,STARLINK-4477,PAYLOAD,2023-07-15 01:48:40,15.08851295,0.000115,53.2163,81.9296,88.7,271.4124,0.00015706,2.213e-05,0.0,0 STARLINK-4477,1 53546U 22101V   23196.07547258  .00002213  00000-0  15706-3 0  9998,2 53546  53.2163  81.9296 0001150  88.7000 271.4124 15.08851295 50224,6917.846,95.437,540.506,538.915,0.0
53546.0,STARLINK-4477,PAYLOAD,2023-07-15 17:42:33,15.08834332,0.0001201,53.2163,78.9561,87.7474,272.3656,-1.8792e-05,-5.87e-06,0.0,0 STARLINK-4477,1 53546U 22101V   23196.73789025 -.00000587  00000-0 -18792-4 0  9994,2 53546  53.2163  78.9561 0001201  87.7474 272.3656 15.08834332 50320,6917.898,95.438,540.594,538.932,0.0
53546.0,STARLINK-4477,PAYLOAD,2023-07-16 01:39:28,15.08842219,0.0001144,53.2164,77.4694,82.4305,277.6817,4.9958e-05,5.07e-06,0.0,0 STARLINK-4477,1 53546U 22101V   23197.06908381  .00000507  00000-0  49958-4 0  9997,2 53546  53.2164  77.4694 0001144  82.4305 277.6817 15.08842219 50378,6917.874,95.437,540.53,538.947,0.0
53546.0,STARLINK-4477,PAYLOAD,2023-07-17 01:30:15,15.08851485,0.0001168,53.2165,73.0075,89.3576,270.755,4.8217e-05,4.8e-06,0.0,0 STARLINK-4477,1 53546U 22101V   23198.06267733  .00000480  00000-0  48217-4 0  9994,2 53546  53.2165  73.0075 0001168  89.3576 270.7550 15.08851485 50526,6917.845,95.437,540.518,538.902,0.0
53546.0,STARLINK-4477,PAYLOAD,2023-07-17 18:59:31,15.08817448,0.0001165,53.2169,69.7356,92.7573,267.3553,0.00038946,5.912e-05,0.0,0 STARLINK-4477,1 53546U 22101V   23198.79133117  .00005912  00000-0  38946-3 0  9994,2 53546  53.2169  69.7356 0001165  92.7573 267.3553 15.08817448 50634,6917.949,95.439,540.62,539.008,0.0
53546.0,STARLINK-4477,PAYLOAD,2023-07-18 10:53:21,15.08837421,0.0001182,53.2162,66.7648,93.1485,266.9642,4.0429e-05,3.56e-06,0.0,0 STARLINK-4477,1 53546U 22101V   23199.45372673  .00000356  00000-0  40429-4 0  9997,2 53546  53.2162  66.7648 0001182  93.1485 266.9642 15.08837421 50732,6917.888,95.438,540.571,538.936,0.0
53546.0,STARLINK-4477,PAYLOAD,2023-07-19 17:05:42,15.08819315,0.0001026,53.217,61.1155,82.4245,277.6864,9.2486e-05,1.184e-05,0.0,0 STARLINK-4477,1 53546U 22101V   23200.71229857  .00001184  00000-0  92486-4 0  9994,2 53546  53.2170  61.1155 0001026  82.4245 277.6864 15.08819315 50923,6917.944,95.439,540.518,539.099,0.0
53546.0,STARLINK-4477,PAYLOAD,2023-07-19 18:41:05,15.08801998,0.0001122,53.2169,60.8182,83.9645,276.1475,0.00032664,4.909e-05,0.0,0 STARLINK-4477,1 53546U 22101V   23200.77854134  .00004909  00000-0  32664-3 0  9991,2 53546  53.2169  60.8182 0001122  83.9645 276.1475 15.08801998 50935,6917.997,95.44,540.638,539.085,0.0
53546.0,STARLINK-4477,PAYLOAD,2023-07-20 16:56:29,15.08837592,9.69e-05,53.2168,56.654,99.2849,260.8253,0.00010833,1.437e-05,0.0,0 STARLINK-4477,1 53546U 22101V   23201.70589163  .00001437  00000-0  10833-3 0  9999,2 53546  53.2168  56.6540 0000969  99.2849 260.8253 15.08837592 51078,6917.888,95.438,540.423,539.082,0.0
53546.0,STARLINK-4477,PAYLOAD,2023-07-21 00:53:24,15.08845869,9.89e-05,53.2167,55.1667,99.7986,260.3118,0.00014843,2.076e-05,0.0,0 STARLINK-4477,1 53546U 22101V   23202.03708578  .00002076  00000-0  14843-3 0  9994,2 53546  53.2167  55.1667 0000989  99.7986 260.3118 15.08845869 51127,6917.862,95.437,540.412,539.043,0.0
53546.0,STARLINK-4477,PAYLOAD,2023-07-21 08:50:20,15.08838392,9.93e-05,53.2167,53.6795,102.0914,258.019,0.00017837,2.552e-05,0.0,0 STARLINK-4477,1 53546U 22101V   23202.36828905  .00002552  00000-0  17837-3 0  9992,2 53546  53.2167  53.6795 0000993 102.0914 258.0190 15.08838392 51178,6917.885,95.438,540.437,539.063,0.0
53546.0,STARLINK-4477,PAYLOAD,2023-07-24 13:08:51,15.08833382,9.76e-05,53.2181,39.4021,122.0986,238.0101,7.5462e-05,9.13e-06,0.0,0 STARLINK-4477,1 53546U 22101V   23205.54781453  .00000913  00000-0  75462-4 0  9999,2 53546  53.2181  39.4021 0000976 122.0986 238.0101 15.08833382 51657,6917.901,95.438,540.441,539.09,0.0
